K13SA0Z  7.9   0.15 K1794 181.48328  165.20529   27.81333    8.47643  0.0739671  0.00343862  43.4723818  4 MPO420419    37   4 2013-2017 0.13 M-v 38h MPCLINUX   0010          2013 SZ100         20170830
K13SA1A  7.1   0.15 K1794  93.03750  186.46492   65.15636    3.69367  0.2728628  0.00300178  47.5937992  4 MPO420419    31   3 2013-2015 0.12 M-v 38h MPCLINUX   000A          2013 SA101         20151207
K13SA1B  8.2   0.15 K1794 341.56008  288.17431  111.47161    2.06468  0.1115580  0.00344128  43.4499333  3 MPO420419    39   4 2013-2017 0.11 M-v 38h MPCLINUX   0010          2013 SB101         20170724
K13SA1C  7.7   0.15 K1794 144.26153  127.07218  101.61051    2.23817  0.0441645  0.00355913  42.4854592  4 MPO420419    47   3 2013-2015 0.12 M-v 38h MPCLINUX   0010          2013 SC101         20151231
K13SA1D  7.3   0.15 K1794  31.17042  299.09169   44.54705    1.58950  0.0182891  0.00347556  43.1637557  3 MPO420419    38   3 2013-2017 0.10 M-v 38h MPCLINUX   0010          2013 SD101         20170830
K13SA1E  7.7   0.15 K1794 347.33417  262.22988  128.89590    0.91102  0.0722308  0.00338434  43.9359480  3 MPO420419    38   3 2013-2017 0.11 M-v 38h MPCLINUX   0010          2013 SE101         20170830
K13SA1F  7.8   0.15 K1794 195.82925  143.76147   37.78892    1.31930  0.0568883  0.00358539  42.2777802  4 MPO420420    32   3 2013-2017 0.12 M-v 38h MPCLINUX   0010          2013 SF101         20170830
K13SA1G  8.1   0.15 K1794   8.44093  214.78953  152.23935    1.78533  0.0520760  0.00312331  46.3510419  3 MPO420420    36   4 2013-2017 0.14 M-v 38h MPCLINUX   0010          2013 SG101         20170830
K13TE5P  9.8   0.15 K13AF   3.58308   27.93657  325.82568   28.33893  0.5006018  0.00710198  26.8050378  E MPO277282    10   1   21 days 0.33         MPCW       200A          2013 TP145         20131029
K13TF9H  8.6   0.15 K1794  88.05857  232.06572   62.35453   33.67602  0.0953900  0.00378220  40.7980921  4 MPO343609    17   2 2013-2014 0.15 M-v 38h MPCW       000A          2013 TH159         20141210
K13TF9M  6.5   0.15 K1794 352.18692  294.45976  107.91516    9.54515  0.1635156  0.00313659  46.2201144  3 MPO384283    18   4 2010-2013 0.17 M-v 38h MPCW       0410          2013 TM159         20131125
K13U10L 12.4   0.15 K1794  37.25289  186.69299  234.04310   19.15119  0.3774378  0.03135933   9.9592102  1 MPO397839    62   6 2010-2016 0.51 M-v 38h MPCW       000A          2013 UL10          20161112
K13U15E  8.3   0.15 K1794   4.69736   18.50651   24.23339    6.74153  0.6481487  0.00215322  59.3941882  0 MPO384284    34   6 2003-2015 0.13 M-v 38h MPCADO     0411          2013 UE15          20150114
K13U15F  6.0   0.15 K1794   0.93414    9.66987   39.39578   12.40718  0.1600368  0.00361163  42.0727404  2 MPO392430    38   6 2008-2016 0.21 M-v 38h MPCADO     040F          2013 UF15          20161007
K13U15H  7.7   0.15 K1794 353.65976  283.09541  176.60201   26.12721  0.7950877  0.00044257 170.5362184  3 MPO389099    10   3 2013-2015 0.18 M-v 38h MPCW       0011          2013 UH15          20151016
K13U15J  7.0   0.15 K1794 126.23628   54.25655  169.79753   33.12720  0.3117352  0.00256890  52.8004653  4 MPO389099    15   2 2013-2014 0.31 M-v 38h MPCW       0011          2013 UJ15          20141025
K13U15K  6.1   0.15 K1794 203.12473   54.85638  119.51371   11.70184  0.1719179  0.00303920  47.2023258  5 MPO389100    10   2 2013-2014 0.19 M-v 38h MPCW       0010          2013 UK15          20141023
K13U15N  7.3   0.15 K1794  94.76672  113.94490  166.14769    3.36981  0.0556867  0.00327130  44.9423492  3 MPO423791    44   4 2013-2017 0.12 M-v 38h MPCLINUX   0410          2013 UN15          20170724
K13U15O  6.8   0.15 K1794 112.16130  199.77547   64.00722    3.73337  0.0512538  0.00347757  43.1471410  3 MPO423791    25   4 2013-2017 0.08 M-v 38h MPCLINUX   0410          2013 UO15          20170923
K13U15P  7.5   0.15 K1794 335.82233  328.03398   82.05036    2.47192  0.0747784  0.00311934  46.3903325  3 MPO423791    47   3 2013-2015 0.07 M-v 38h MPCLINUX   0010          2013 UP15          20151207
K13U15Q  6.5   0.15 K1794 172.94098   16.27758  189.15533   27.41570  0.1167823  0.00354130  42.6279455  5 MPO423791    28   2 2013-2015 0.06 M-v 38h MPCLINUX   0010          2013 UQ15          20150117
K13U15R 11.1   0.15 K1794   5.59957  163.34735  194.64755   22.27334  0.7168593  0.00239447  55.3345169  2 MPO423791    27   2 2013-2015 0.12 M-v 38h MPCLINUX   0011          2013 UR15          20150118
K13U15S  7.9   0.15 K1794 326.72493  262.82085  158.93739    2.01978  0.0667393  0.00451971  36.2294823  4 MPO423791    39   2 2013-2015 0.08 M-v 38h MPCLINUX   000F          2013 US15          20150118
K13U16W  7.3   0.15 K1794 261.54829   46.82757   78.04934    1.97323  0.0733440  0.00335823  44.1633495  3 MPO420432    57   4 2013-2017 0.11 M-v 38h MPCLINUX   0410          2013 UW16          20170724
K13U16X  8.0   0.15 K1794 121.75180  199.17634   37.23539    4.42681  0.2413042  0.00402996  39.1082953  3 MPO420432    44   4 2013-2017 0.11 M-v 38h MPCLINUX   040E          2013 UX16          20170830
K13U16Y  7.6   0.15 K1794  95.86711  219.36332   52.86061    2.36088  0.0980969  0.00339652  43.8308335  3 MPO420432    45   5 2013-2017 0.13 M-v 38h MPCLINUX   0410          2013 UY16          20170830
K13U16Z  7.8   0.15 K1794 287.18755  100.65764   23.06251   11.23662  0.2775361  0.00333066  44.4067429  3 MPO420432    40   4 2013-2017 0.10 M-v 38h MPCLINUX   040A          2013 UZ16          20170830
K13U17A  8.9   0.15 K1794  37.22618  302.26287   30.26940    1.98063  0.1483158  0.00400200  39.2902373  3 MPO420432    32   3 2013-2015 0.10 M-v 38h MPCLINUX   000E          2013 UA17          20151207
K13U17B  7.0   0.15 K1794  31.13569  308.94537   15.38692   32.93417  0.2851419  0.00200672  62.2507895  2 MPO420433    32   3 2013-2017 0.07 M-v 38h MPCLINUX   000A          2013 UB17          20170830
K13U17C 11.4   0.15 K1794 357.41505  205.81304  194.18675   32.52174  0.1245383  0.01165299  19.2683501  2 MPO420433    23   3 2013-2015 0.10 M-v 38h MPCLINUX   000A          2013 UC17          20151207
K13U17D  9.2   0.15 K1794   9.95868  341.29715   16.81128   26.42133  0.3930804  0.00240473  55.1771049  4 MPO420433    15   2 2013-2014 0.12 M-v 38h MPCLINUX   0011          2013 UD17          20141217
K13U17E  8.3   0.15 K1794  60.96897  204.36358  110.02052    0.71652  0.0449506  0.00350909  42.8883691  3 MPO420433    26   3 2013-2015 0.11 M-v 38h MPCLINUX   0010          2013 UE17          20150820
K13U17F  8.9   0.15 K1794  26.34396  149.55078  190.88219   17.15731  0.2485213  0.00400429  39.2752772  3 MPO420433    38   3 2013-2015 0.11 M-v 38h MPCLINUX   000E          2013 UF17          20151207
K13U17G  8.3   0.15 K1794 312.89918  245.92174  187.80822    7.66158  0.0712558  0.00343524  43.5008470  3 MPO420433    45   4 2013-2017 0.13 M-v 38h MPCLINUX   0410          2013 UG17          20170830
K13U17H  9.0   0.15 K1794 350.62813  219.60765  181.68542    9.34897  0.2983623  0.00301841  47.4187872  2 MPO420434    39   4 2013-2017 0.10 M-v 38h MPCLINUX   040A          2013 UH17          20170830
K13U17J  9.0   0.15 K1794 351.35396  359.36377   36.69475    6.83288  0.1811248  0.00399519  39.3348898  3 MPO420434    60   3 2013-2015 0.10 M-v 38h MPCLINUX   000E          2013 UJ17          20151207
K13U17K  6.6   0.15 K1794 223.26209  150.47559   21.34523   25.06925  0.2888480  0.00343387  43.5124856  4 MPO420434    36   3 2013-2017 0.16 M-v 38h MPCLINUX   000A          2013 UK17          20170830
K13U17L  8.1   0.15 K1794  91.56956  203.07344   82.25763    1.83201  0.0282312  0.00355279  42.5359322  2 MPO420434    32   4 2013-2017 0.09 M-v 38h MPCLINUX   0410          2013 UL17          20170830
K13U17M  7.7   0.15 K1794  76.49850  109.63023  185.58129   13.02072  0.0790794  0.00358154  42.3080644  2 MPO420434    46   3 2004-2015 0.15 M-v 38h MPCLINUX   0010          2013 UM17          20150118
K13U17N  7.9   0.15 K1794 219.44388  105.06328   57.44762    2.95277  0.0277522  0.00345460  43.3382358  3 MPO420435    39   4 2013-2017 0.11 M-v 38h MPCLINUX   0410          2013 UN17          20170830
K13U17O  8.3   0.15 K1794 351.84107  244.38523  158.76519    3.83692  0.3843997  0.00244094  54.6299569  2 MPO420435    47   4 2013-2017 0.10 M-v 38h MPCLINUX   0411          2013 UO17          20170830
K13U17P  7.9   0.15 K1794  45.02555  236.53157   94.77098    0.94542  0.0478105  0.00341669  43.6581870  4 MPO420435    34   3 2013-2015 0.09 M-v 38h MPCLINUX   0010          2013 UP17          20151207
K13U17Q  8.8   0.15 K1794  79.73672  271.09246   20.78925   11.45646  0.0918069  0.00448209  36.4319397  2 MPO420435    38   4 2013-2017 0.13 M-v 38h MPCLINUX   040A          2013 UQ17          20170128
K13U17R  7.6   0.15 K1794 236.42081    8.51030  142.05824    3.11647  0.0733081  0.00336288  44.1226825  5 MPO420435    41   3 2013-2015 0.15 M-v 38h MPCLINUX   0010          2013 UR17          20151207
K13U17S  8.0   0.15 K1794 120.43785  141.99626  114.41651    2.91219  0.0403305  0.00357148  42.3874104  4 MPO420435    31   3 2013-2015 0.15 M-v 38h MPCLINUX   0010          2013 US17          20151207
K13U17T  7.6   0.15 K1794 136.22724  199.99458   41.99493    4.01581  0.0300851  0.00351400  42.8484138  3 MPO420436    28   3 2013-2017 0.07 M-v 38h MPCLINUX   0010          2013 UT17          20170830
K13U17U 10.2   0.15 K1794  82.02491  248.44252   27.96003    8.53272  0.2510962  0.00752057  25.8009325  4 MPO420436    23   2 2013-2015 0.12 M-v 38h MPCLINUX   000A          2013 UU17          20150118
K13U17V  8.2   0.15 K1794  92.02214  204.80948   64.81135    2.08693  0.1830143  0.00400300  39.2836988  4 MPO420436    47   3 2013-2015 0.13 M-v 38h MPCLINUX   000E          2013 UV17          20151207
K13U17W  7.6   0.15 K1794 203.70217   83.92991   94.23443    1.92733  0.0170758  0.00325171  45.1226703  3 MPO420436    53   4 2013-2017 0.12 M-v 38h MPCLINUX   0410          2013 UW17          20170830
